NORAD_CAT_ID,OBJECT_NAME,OBJECT_TYPE,EPOCH,MEAN_MOTION,ECCENTRICITY,INCLINATION,RA_OF_ASC_NODE,ARG_OF_PERICENTER,MEAN_ANOMALY,BSTAR,MEAN_MOTION_DOT,MEAN_MOTION_DDOT,TLE_LINE0,TLE_LINE1,TLE_LINE2,SEMIMAJOR_AXIS,PERIOD,APOGEE,PERIGEE,DECAYED
54765.0,STARLINK-5466,PAYLOAD,2023-02-14 08:09:21,15.08840174,0.0001436,53.2198,29.1834,83.026,277.0896,0.00011549,1.551e-05,0.0,0 STARLINK-5466,1 54765U 22175H   23045.33983277  .00001551  00000-0  11549-3 0  9995,2 54765  53.2198  29.1834 0001436  83.0260 277.0896 15.08840174  8787,6917.88,95.438,540.738,538.751,0.0
54765.0,STARLINK-5466,PAYLOAD,2023-02-15 04:49:22,15.08840063,0.0001202,53.2174,25.3179,85.5741,274.5389,7.5113e-05,9.08e-06,0.0,0 STARLINK-5466,1 54765U 22175H   23046.20095594  .00000908  00000-0  75113-4 0  9991,2 54765  53.2174  25.3179 0001202  85.5741 274.5389 15.08840063 11064,6917.88,95.438,540.577,538.914,0.0
54765.0,STARLINK-5466,PAYLOAD,2023-02-15 22:18:36,15.08848588,0.0001556,53.2176,22.0477,80.682,279.4348,0.00013648,1.885e-05,0.0,0 STARLINK-5466,1 54765U 22175H   23046.92958877  .00001885  00000-0  13648-3 0  9991,2 54765  53.2176  22.0477 0001556  80.6820 279.4348 15.08848588  9029,6917.854,95.437,540.796,538.643,0.0
54765.0,STARLINK-5466,PAYLOAD,2023-02-16 07:50:53,15.08868333,0.0001788,53.2176,20.2599,109.4042,250.7143,0.00029435,4.403e-05,0.0,0 STARLINK-5466,1 54765U 22175H   23047.32700666  .00004403  00000-0  29435-3 0  9997,2 54765  53.2176  20.2599 0001788 109.4042 250.7143 15.08868333  9088,6917.794,95.436,540.896,538.422,0.0
54765.0,STARLINK-5466,PAYLOAD,2023-02-17 04:30:57,15.08828062,9.99e-05,53.2177,16.3977,94.6012,265.5094,-0.00013652,-2.459e-05,0.0,0 STARLINK-5466,1 54765U 22175H   23048.18816753 -.00002459  00000-0 -13652-3 0  9992,2 54765  53.2177  16.3977 0000999  94.6012 265.5094 15.08828062  9219,6917.917,95.438,540.473,539.091,0.0
54765.0,STARLINK-5466,PAYLOAD,2023-02-17 07:41:43,15.08826587,0.0001257,53.2188,15.7986,123.7314,236.3798,-3.2353e-05,-8.02e-06,0.0,0 STARLINK-5466,1 54765U 22175H   23048.32064594 -.00000802  00000-0 -32353-4 0  9996,2 54765  53.2188  15.7986 0001257 123.7314 236.3798 15.08826587 11389,6917.921,95.438,540.656,538.917,0.0
54765.0,STARLINK-5466,PAYLOAD,2023-02-18 13:54:02,15.08849169,0.0001013,53.2187,10.1527,79.9971,280.1135,-0.00013702,-2.468e-05,0.0,0 STARLINK-5466,1 54765U 22175H   23049.57919798 -.00002468  00000-0 -13702-3 0  9995,2 54765  53.2187  10.1527 0001013  79.9971 280.1135 15.08849169 11573,6917.852,95.437,540.418,539.017,0.0
54765.0,STARLINK-5466,PAYLOAD,2023-02-18 21:50:58,15.08839781,5.86e-05,53.2177,8.6626,51.5555,308.5489,0.00025331,3.746e-05,0.0,0 STARLINK-5466,1 54765U 22175H   23049.91040129  .00003746  00000-0  25331-3 0  9995,2 54765  53.2177   8.6626 0000586  51.5555 308.5489 15.08839781  9474,6917.881,95.438,540.151,539.341,0.0
54765.0,STARLINK-5466,PAYLOAD,2023-02-19 04:12:30,15.08856487,5.18e-05,53.2178,7.4781,79.7862,280.3188,0.00038446,5.839e-05,0.0,0 STARLINK-5466,1 54765U 22175H   23050.17535023  .00005839  00000-0  38446-3 0  9993,2 54765  53.2178   7.4781 0000518  79.7862 280.3188 15.08856487  9512,6917.83,95.437,540.053,539.337,0.0
54765.0,STARLINK-5466,PAYLOAD,2023-02-19 13:44:49,15.08859372,5.71e-05,53.2172,5.6932,47.459,312.645,0.00039142,5.951e-05,0.0,0 STARLINK-5466,1 54765U 22175H   23050.57279134  .00005951  00000-0  39142-3 0  9994,2 54765  53.2172   5.6932 0000571  47.4590 312.6450 15.08859372 11726,6917.821,95.436,540.081,539.291,0.0
54765.0,STARLINK-5466,PAYLOAD,2023-02-19 23:17:10,15.08830472,6.65e-05,53.2176,3.9074,62.7144,297.3916,2.4584e-05,1.04e-06,0.0,0 STARLINK-5466,1 54765U 22175H   23050.97025516  .00000104  00000-0  24584-4 0  9991,2 54765  53.2176   3.9074 0000665  62.7144 297.3916 15.08830472  9630,6917.91,95.438,540.235,539.314,0.0
54765.0,STARLINK-5466,PAYLOAD,2023-02-20 05:38:41,15.08849074,7.73e-05,53.217,2.7174,76.2513,283.8565,0.00011826,1.595e-05,0.0,0 STARLINK-5466,1 54765U 22175H   23051.23519790  .00001595  00000-0  11826-3 0  9992,2 54765  53.2170   2.7174 0000773  76.2513 283.8565 15.08849074  9674,6917.853,95.437,540.252,539.183,0.0
54765.0,STARLINK-5466,PAYLOAD,2023-02-20 13:35:37,15.08840439,9.27e-05,53.2169,1.2298,69.2102,290.8989,-7.7254e-05,-1.517e-05,0.0,0 STARLINK-5466,1 54765U 22175H   23051.56640171 -.00001517  00000-0 -77254-4 0  9990,2 54765  53.2169   1.2298 0000927  69.2102 290.8989 15.08840439  9720,6917.879,95.438,540.385,539.103,0.0
54765.0,STARLINK-5466,PAYLOAD,2023-02-21 05:29:27,15.08860265,9.86e-05,53.2183,358.257,80.6331,279.4772,-0.00026901,-4.569e-05,0.0,0 STARLINK-5466,1 54765U 22175H   23052.22878880 -.00004569  00000-0 -26901-3 0  9996,2 54765  53.2183 358.2570 0000986  80.6331 279.4772 15.08860265  9823,6917.818,95.436,540.366,539.001,0.0
54765.0,STARLINK-5466,PAYLOAD,2023-02-21 13:26:23,15.08844381,0.0001336,53.2189,356.7712,72.6262,287.4876,-8.6874e-06,-4.26e-06,0.0,0 STARLINK-5466,1 54765U 22175H   23052.55999819 -.00000426  00000-0 -86874-5 0  9993,2 54765  53.2189 356.7712 0001336  72.6262 287.4876 15.08844381  9874,6917.867,95.437,540.656,538.808,0.0
54765.0,STARLINK-5466,PAYLOAD,2023-02-22 05:20:14,15.088566,0.0001046,53.218,353.7978,84.9961,275.1151,0.000283,4.221e-05,0.0,0 STARLINK-5466,1 54765U 22175H   23053.22239156  .00004221  00000-0  28300-3 0  9992,2 54765  53.2180 353.7978 0001046  84.9961 275.1151 15.08856600  9974,6917.83,95.437,540.418,538.971,0.0
54765.0,STARLINK-5466,PAYLOAD,2023-02-22 19:38:44,15.08827377,0.0001189,53.2184,351.1211,86.3608,273.752,-8.0827e-05,-1.573e-05,0.0,0 STARLINK-5466,1 54765U 22175H   23053.81857047 -.00001573  00000-0 -80827-4 0  9994,2 54765  53.2184 351.1211 0001189  86.3608 273.7520 15.08827377 10067,6917.919,95.438,540.607,538.961,0.0
54765.0,STARLINK-5466,PAYLOAD,2023-02-23 05:11:03,15.08833783,0.0001199,53.2176,349.3382,83.8775,276.2353,3.4073e-06,-2.34e-06,0.0,0 STARLINK-5466,1 54765U 22175H   23054.21600870 -.00000234  00000-0  34073-5 0  9994,2 54765  53.2176 349.3382 0001199  83.8775 276.2353 15.08833783 10121,6917.899,95.438,540.594,538.935,0.0
54765.0,STARLINK-5466,PAYLOAD,2023-02-24 01:51:03,15.0886316,0.000134,53.2172,345.4725,83.0056,277.1088,0.0010502,0.00016476,0.0,0 STARLINK-5466,1 54765U 22175H   23055.07712441  .00016476  00000-0  10502-2 0  9999,2 54765  53.2172 345.4725 0001340  83.0056 277.1088 15.08863160 10258,6917.81,95.436,540.602,538.748,0.0
54765.0,STARLINK-5466,PAYLOAD,2023-02-24 05:01:49,15.08873017,0.0001374,53.2172,344.8777,82.6452,277.4696,0.0012938,0.00020381,0.0,0 STARLINK-5466,1 54765U 22175H   23055.20960151  .00020381  00000-0  12938-2 0  9992,2 54765  53.2172 344.8777 0001374  82.6452 277.4696 15.08873017 12421,6917.779,95.435,540.595,538.694,0.0
54765.0,STARLINK-5466,PAYLOAD,2023-02-24 19:20:17,15.08844692,0.0001188,53.2173,342.2012,94.1462,265.9666,3.4166e-05,2.56e-06,0.0,0 STARLINK-5466,1 54765U 22175H   23055.80576364  .00000256  00000-0  34166-4 0  9995,2 54765  53.2173 342.2012 0001188  94.1462 265.9666 15.08844692 12514,6917.866,95.437,540.553,538.909,0.0
54765.0,STARLINK-5466,PAYLOAD,2023-02-25 01:41:50,15.08842796,0.0001352,53.2174,341.0119,95.3075,264.8071,0.00012435,1.692e-05,0.0,0 STARLINK-5466,1 54765U 22175H   23056.07072458  .00001692  00000-0  12435-3 0  9999,2 54765  53.2174 341.0119 0001352  95.3075 264.8071 15.08842796 10403,6917.872,95.437,540.672,538.802,0.0
54765.0,STARLINK-5466,PAYLOAD,2023-02-25 04:52:36,15.08845464,0.0001409,53.2174,340.4168,97.968,262.1473,0.00039386,5.987e-05,0.0,0 STARLINK-5466,1 54765U 22175H   23056.20320469  .00005987  00000-0  39386-3 0  9997,2 54765  53.2174 340.4168 0001409  97.9680 262.1473 15.08845464 12575,6917.864,95.437,540.703,538.754,0.0
54765.0,STARLINK-5466,PAYLOAD,2023-02-26 01:32:37,15.08856131,0.0001471,53.2181,336.5537,101.7334,258.3823,0.00077119,0.00012012,0.0,0 STARLINK-5466,1 54765U 22175H   23057.06432438  .00012012  00000-0  77119-3 0  9995,2 54765  53.2181 336.5537 0001471 101.7334 258.3823 15.08856131 12702,6917.831,95.437,540.714,538.678,0.0
54765.0,STARLINK-5466,PAYLOAD,2023-02-26 19:01:51,15.08848816,0.0001293,53.217,333.2803,86.1914,273.9226,0.00038082,5.779e-05,0.0,0 STARLINK-5466,1 54765U 22175H   23057.79296027  .00005779  00000-0  38082-3 0  9995,2 54765  53.2170 333.2803 0001293  86.1914 273.9226 15.08848816 10666,6917.853,95.437,540.613,538.824,0.0
54765.0,STARLINK-5466,PAYLOAD,2023-02-27 04:34:09,15.08876199,0.0001236,53.217,331.4958,88.18,271.9333,0.00080067,0.0001249,0.0,0 STARLINK-5466,1 54765U 22175H   23058.19038992  .00012490  00000-0  80067-3 0  9993,2 54765  53.2170 331.4958 0001236  88.1800 271.9333 15.08876199 10729,6917.77,95.435,540.49,538.78,0.0
54765.0,STARLINK-5466,PAYLOAD,2023-02-28 06:00:17,15.08908756,0.000106,53.2156,326.739,121.1995,238.9101,0.0012671,0.00019973,0.0,0 STARLINK-5466,1 54765U 22175H   23059.25020171  .00019973  00000-0  12671-2 0  9999,2 54765  53.2156 326.7390 0001060 121.1995 238.9101 15.08908756 10886,6917.67,95.433,540.269,538.802,0.0
54765.0,STARLINK-5466,PAYLOAD,2023-02-28 21:54:11,15.0880682,0.0001384,53.2169,323.7672,108.2316,251.8827,-0.00095421,-0.00015428,0.0,0 STARLINK-5466,1 54765U 22175H   23059.91263835 -.00015428  00000-0 -95421-3 0  9996,2 54765  53.2169 323.7672 0001384 108.2316 251.8827 15.08806820 13131,6917.982,95.44,540.804,538.889,0.0
54765.0,STARLINK-5466,PAYLOAD,2023-02-28 23:29:35,15.08805132,0.0001333,53.2175,323.4706,86.9484,273.1661,-0.000879,-0.00014236,0.0,0 STARLINK-5466,1 54765U 22175H   23059.97887965 -.00014236  00000-0 -87900-3 0  9997,2 54765  53.2175 323.4706 0001333  86.9484 273.1661 15.08805132 10994,6917.987,95.44,540.774,538.93,0.0
54765.0,STARLINK-5466,PAYLOAD,2023-03-01 07:26:31,15.08810222,0.0001141,53.2169,321.9832,75.0829,285.0289,-0.00024783,-4.227e-05,0.0,0 STARLINK-5466,1 54765U 22175H   23060.31008506 -.00004227  00000-0 -24783-3 0  9992,2 54765  53.2169 321.9832 0001141  75.0829 285.0289 15.08810222 11040,6917.971,95.439,540.626,539.047,0.0
